{
  "type": "FeatureCollection",
  "features": [
    {
      "type": "Feature",
      "properties": {
        "norad_id": 26766,
        "name": "INTELSAT 10 (IS-10)",
        "group": "intelsat",
        "lat": 8.633953476313001,
        "lon": 151.09751889953117,
        "alt_km": 36145.599366739996,
        "timestamp": "2025-12-10T18:56:59.729348+00:00",
        "meta_object_name": "INTELSAT 10 (IS-10)",
        "meta_object_id": "2001-019A",
        "meta_epoch": "2025-12-10T09:00:59.361984",
        "meta_mean_motion": 0.99078972,
        "meta_eccentricity": 0.0007813,
        "meta_inclination": 8.6245,
        "meta_ra_of_asc_node": 61.1809,
        "meta_arg_of_pericenter": 223.4667,
        "meta_mean_anomaly": 78.8791,
        "meta_ephemeris_type": 0,
        "meta_classification_type": "U",
        "meta_norad_cat_id": 26766,
        "meta_element_set_no": 999,
        "meta_rev_at_epoch": 4370,
        "meta_bstar": 0,
        "meta_mean_motion_dot": -2.87e-06,
        "meta_mean_motion_ddot": 0,
        "tle_line1": "1 26766U 01019A   25344.37568706 -.00000287  00000+0  00000+0 0  9994",
        "tle_line2": "2 26766   8.6245  61.1809 0007813 223.4667  78.8791  0.99078972 43703"
      },
      "geometry": {
        "type": "Point",
        "coordinates": [
          151.09751889953117,
          8.633953476313001
        ]
      }
    },
    {
      "type": "Feature",
      "properties": {
        "norad_id": 26900,
        "name": "INTELSAT 902 (IS-902)",
        "group": "intelsat",
        "lat": -4.883405455571564,
        "lon": -46.27387468698148,
        "alt_km": 35780.19921432333,
        "timestamp": "2025-12-10T18:56:59.729371+00:00",
        "meta_object_name": "INTELSAT 902 (IS-902)",
        "meta_object_id": "2001-039A",
        "meta_epoch": "2025-12-01T16:59:59.311968",
        "meta_mean_motion": 1.00270327,
        "meta_eccentricity": 0.00043097,
        "meta_inclination": 5.6187,
        "meta_ra_of_asc_node": 74.2002,
        "meta_arg_of_pericenter": 175.119,
        "meta_mean_anomaly": 26.3816,
        "meta_ephemeris_type": 0,
        "meta_classification_type": "U",
        "meta_norad_cat_id": 26900,
        "meta_element_set_no": 999,
        "meta_rev_at_epoch": 8871,
        "meta_bstar": 0,
        "meta_mean_motion_dot": -2.63e-06,
        "meta_mean_motion_ddot": 0,
        "tle_line1": "1 26900U 01039A   25335.70832537 -.00000263  00000+0  00000+0 0  9993",
        "tle_line2": "2 26900   5.6187  74.2002 0004309 175.1190  26.3816  1.00270327 88713"
      },
      "geometry": {
        "type": "Point",
        "coordinates": [
          -46.27387468698148,
          -4.883405455571564
        ]
      }
    },
    {
      "type": "Feature",
      "properties": {
        "norad_id": 27380,
        "name": "INTELSAT 904 (IS-904)",
        "group": "intelsat",
        "lat": -6.378511790947071,
        "lon": -27.542903977586235,
        "alt_km": 35782.19687693855,
        "timestamp": "2025-12-10T18:56:59.729388+00:00",
        "meta_object_name": "INTELSAT 904 (IS-904)",
        "meta_object_id": "2002-007A",
        "meta_epoch": "2025-12-09T11:42:40.881024",
        "meta_mean_motion": 1.00273083,
        "meta_eccentricity": 0.0001514,
        "meta_inclination": 6.4469,
        "meta_ra_of_asc_node": 71.4685,
        "meta_arg_of_pericenter": 215.3872,
        "meta_mean_anomaly": 295.774,
        "meta_ephemeris_type": 0,
        "meta_classification_type": "U",
        "meta_norad_cat_id": 27380,
        "meta_element_set_no": 999,
        "meta_rev_at_epoch": 4986,
        "meta_bstar": 0,
        "meta_mean_motion_dot": -2.24e-06,
        "meta_mean_motion_ddot": 0,
        "tle_line1": "1 27380U 02007A   25343.48797316 -.00000224  00000+0  00000+0 0  9998",
        "tle_line2": "2 27380   6.4469  71.4685 0001514 215.3872 295.7740  1.00273083 49866"
      },
      "geometry": {
        "type": "Point",
        "coordinates": [
          -27.542903977586235,
          -6.378511790947071
        ]
      }
    },
    {
      "type": "Feature",
      "properties": {
        "norad_id": 27426,
        "name": "DIRECTV 5 (TEMPO 1)",
        "group": "intelsat",
        "lat": 0.2720640252728718,
        "lon": -106.10989427549949,
        "alt_km": 35771.10994778869,
        "timestamp": "2025-12-10T18:56:59.729401+00:00",
        "meta_object_name": "DIRECTV 5 (TEMPO 1)",
        "meta_object_id": "2002-023A",
        "meta_epoch": "2025-12-10T08:42:38.903328",
        "meta_mean_motion": 1.00272223,
        "meta_eccentricity": 0.0003896,
        "meta_inclination": 4.3964,
        "meta_ra_of_asc_node": 77.68,
        "meta_arg_of_pericenter": 202.3151,
        "meta_mean_anomaly": 179.8931,
        "meta_ephemeris_type": 0,
        "meta_classification_type": "U",
        "meta_norad_cat_id": 27426,
        "meta_element_set_no": 999,
        "meta_rev_at_epoch": 8623,
        "meta_bstar": 0,
        "meta_mean_motion_dot": -5.4e-07,
        "meta_mean_motion_ddot": 0,
        "tle_line1": "1 27426U 02023A   25344.36295027 -.00000054  00000+0  00000+0 0  9998",
        "tle_line2": "2 27426   4.3964  77.6800 0003896 202.3151 179.8931  1.00272223 86233"
      },
      "geometry": {
        "type": "Point",
        "coordinates": [
          -106.10989427549949,
          0.2720640252728718
        ]
      }
    },
    {
      "type": "Feature",
      "properties": {
        "norad_id": 27438,
        "name": "INTELSAT 905 (IS-905)",
        "group": "intelsat",
        "lat": 2.6643752850622398,
        "lon": -133.07792923398065,
        "alt_km": 35776.320471873034,
        "timestamp": "2025-12-10T18:56:59.729413+00:00",
        "meta_object_name": "INTELSAT 905 (IS-905)",
        "meta_object_id": "2002-027A",
        "meta_epoch": "2025-12-10T10:38:24.492192",
        "meta_mean_motion": 1.00272307,
        "meta_eccentricity": 0.0002799,
        "meta_inclination": 6.2803,
        "meta_ra_of_asc_node": 72.0821,
        "meta_arg_of_pericenter": 193.4676,
        "meta_mean_anomaly": 196.2661,
        "meta_ephemeris_type": 0,
        "meta_classification_type": "U",
        "meta_norad_cat_id": 27438,
        "meta_element_set_no": 999,
        "meta_rev_at_epoch": 4947,
        "meta_bstar": 0,
        "meta_mean_motion_dot": 9.7e-07,
        "meta_mean_motion_ddot": 0,
        "tle_line1": "1 27438U 02027A   25344.44333903  .00000097  00000+0  00000+0 0  9996",
        "tle_line2": "2 27438   6.2803  72.0821 0002799 193.4676 196.2661  1.00272307 49475"
      },
      "geometry": {
        "type": "Point",
        "coordinates": [
          -133.07792923398065,
          2.6643752850622398
        ]
      }
    },
    {
      "type": "Feature",
      "properties": {
        "norad_id": 27445,
        "name": "GALAXY 3C (G-3C)",
        "group": "intelsat",
        "lat": -0.5077887380714707,
        "lon": -90.85601867556788,
        "alt_km": 35786.632593303184,
        "timestamp": "2025-12-10T18:56:59.729424+00:00",
        "meta_object_name": "GALAXY 3C (G-3C)",
        "meta_object_id": "2002-030A",
        "meta_epoch": "2025-12-10T09:03:44.735904",
        "meta_mean_motion": 1.00271037,
        "meta_eccentricity": 0.0001103,
        "meta_inclination": 3.2587,
        "meta_ra_of_asc_node": 80.5284,
        "meta_arg_of_pericenter": 95.4264,
        "meta_mean_anomaly": 304.4719,
        "meta_ephemeris_type": 0,
        "meta_classification_type": "U",
        "meta_norad_cat_id": 27445,
        "meta_element_set_no": 999,
        "meta_rev_at_epoch": 4460,
        "meta_bstar": 0,
        "meta_mean_motion_dot": -1.49e-06,
        "meta_mean_motion_ddot": 0,
        "tle_line1": "1 27445U 02030A   25344.37760111 -.00000149  00000+0  00000+0 0  9994",
        "tle_line2": "2 27445   3.2587  80.5284 0001103  95.4264 304.4719  1.00271037 44604"
      },
      "geometry": {
        "type": "Point",
        "coordinates": [
          -90.85601867556788,
          -0.5077887380714707
        ]
      }
    },
    {
      "type": "Feature",
      "properties": {
        "norad_id": 27513,
        "name": "INTELSAT 906 (IS-906)",
        "group": "intelsat",
        "lat": -0.638276584455713,
        "lon": 68.19231379972626,
        "alt_km": 35811.03324984535,
        "timestamp": "2025-12-10T18:56:59.729436+00:00",
        "meta_object_name": "INTELSAT 906 (IS-906)",
        "meta_object_id": "2002-041A",
        "meta_epoch": "2025-12-09T20:43:37.286400",
        "meta_mean_motion": 1.00271049,
        "meta_eccentricity": 0.00061202,
        "meta_inclination": 5.3215,
        "meta_ra_of_asc_node": 75.2657,
        "meta_arg_of_pericenter": 190.4585,
        "meta_mean_anomaly": 188.1629,
        "meta_ephemeris_type": 0,
        "meta_classification_type": "U",
        "meta_norad_cat_id": 27513,
        "meta_element_set_no": 999,
        "meta_rev_at_epoch": 8513,
        "meta_bstar": 0,
        "meta_mean_motion_dot": 1.5e-07,
        "meta_mean_motion_ddot": 0,
        "tle_line1": "1 27513U 02041A   25343.86362600  .00000015  00000+0  00000+0 0  9997",
        "tle_line2": "2 27513   5.3215  75.2657 0006120 190.4585 188.1629  1.00271049 85135"
      },
      "geometry": {
        "type": "Point",
        "coordinates": [
          68.19231379972626,
          -0.638276584455713
        ]
      }
    }
  ]
}